NORAD_CAT_ID,OBJECT_NAME,OBJECT_TYPE,EPOCH,MEAN_MOTION,ECCENTRICITY,INCLINATION,RA_OF_ASC_NODE,ARG_OF_PERICENTER,MEAN_ANOMALY,BSTAR,MEAN_MOTION_DOT,MEAN_MOTION_DDOT,TLE_LINE0,TLE_LINE1,TLE_LINE2,SEMIMAJOR_AXIS,PERIOD,APOGEE,PERIGEE,DECAYED
51105.0,STARLINK-3350,PAYLOAD,2022-05-15 22:00:00,15.13046221,0.0002043,53.2175,66.0516,33.7516,86.9821,-0.038831,-0.00651163,0.0,0 STARLINK-3350,1 51105U 22005B   22135.91667824 -.00651163  00000-0 -38831-1 0  9995,2 51105  53.2175  66.0516 0002043  33.7516  86.9821 15.13046221  1308,6905.053000000001,95.172,528.3290000000002,525.508,0.0
51105.0,STARLINK-3350,PAYLOAD,2022-05-16 14:00:01,15.12132823,0.000186,53.2174,63.0404,39.7015,113.2289,-0.039601,-0.00647486,0.0,0 STARLINK-3350,1 51105U 22005B   22136.58334491 -.00647486  00000-0 -39601-1 0  9999,2 51105  53.2174  63.0404 0001860  39.7015 113.2289 15.12132823  1301,6907.834,95.23,530.984,528.414,0.0
51105.0,STARLINK-3350,PAYLOAD,2022-05-16 22:00:00,15.11678292,0.0002038,53.2177,61.537,37.166,131.0404,-0.040261,-0.00649827,0.0,0 STARLINK-3350,1 51105U 22005B   22136.91667824 -.00649827  00000-0 -40261-1 0  9990,2 51105  53.2177  61.5370 0002038  37.1660 131.0404 15.11678292 19732,6909.218000000003,95.258,532.492,529.675,0.0
51105.0,STARLINK-3350,PAYLOAD,2022-05-17 14:00:01,15.10765418,0.0001893,53.2174,58.5319,40.6427,156.5377,-0.041099,-0.00646871,0.0,0 STARLINK-3350,1 51105U 22005B   22137.58335648 -.00646871  00000-0 -41099-1 0  9996,2 51105  53.2174  58.5319 0001893  40.6427 156.5377 15.10765418  1307,6912.001,95.316,535.175,532.558,0.0
51105.0,STARLINK-3350,PAYLOAD,2022-05-17 22:00:01,15.10310524,0.0001991,53.2177,57.032,39.4164,171.3972,-0.041745,-0.00648684,0.0,0 STARLINK-3350,1 51105U 22005B   22137.91668981 -.00648684  00000-0 -41745-1 0  9994,2 51105  53.2177  57.0320 0001991  39.4164 171.3972 15.10310524  1309,6913.389,95.345,536.631,533.878,0.0
51105.0,STARLINK-3350,PAYLOAD,2022-05-18 06:00:00,15.09852405,0.0001751,53.2173,55.5334,47.7846,176.0522,-0.041955,-0.0064401,0.0,0 STARLINK-3350,1 51105U 22005B   22138.25001157 -.00644010  00000-0 -41955-1 0  9990,2 51105  53.2173  55.5334 0001751  47.7846 176.0522 15.09852405 19934,6914.788000000001,95.374,537.863,535.442,0.0
51105.0,STARLINK-3350,PAYLOAD,2022-05-18 14:00:01,15.09384,0.0001785,53.2174,54.0331,43.8678,192.5111,-0.040417,-0.00614276,0.0,0 STARLINK-3350,1 51105U 22005B   22138.58334491 -.00614276  00000-0 -40417-1 0  9999,2 51105  53.2174  54.0331 0001785  43.8678 192.5111 15.09384000  1303,6916.218000000003,95.403,539.318,536.849,0.0
51105.0,STARLINK-3350,PAYLOAD,2022-05-18 20:00:01,15.08924726,0.0001918,53.2177,52.9104,38.7166,116.7225,-0.008573,-0.00134506,0.0,0 STARLINK-3350,1 51105U 22005B   22138.83334491 -.00134506  00000-0 -85730-2 0  9998,2 51105  53.2177  52.9104 0001918  38.7166 116.7225 15.08924726 20022,6917.621,95.432,540.813,538.16,0.0
51105.0,STARLINK-3350,PAYLOAD,2022-05-18 22:00:00,15.08852321,0.0001965,53.2176,52.5368,40.2356,208.139,-0.0015964,-0.00025614,0.0,0 STARLINK-3350,1 51105U 22005B   22138.91667824 -.00025614  00000-0 -15964-2 0  9997,2 51105  53.2176  52.5368 0001965  40.2356 208.1390 15.08852321  1300,6917.843000000003,95.437,541.067,538.3480000000002,0.0
51105.0,STARLINK-3350,PAYLOAD,2022-05-19 06:00:00,15.08836567,0.0001701,53.2173,51.0412,49.2055,210.7678,9.3045e-05,1.193e-05,0.0,0 STARLINK-3350,1 51105U 22005B   22139.25001157  .00001193  00000-0  93045-4 0  9998,2 51105  53.2173  51.0412 0001701  49.2055 210.7678 15.08836567 20082,6917.891,95.438,540.933,538.5790000000002,0.0
51105.0,STARLINK-3350,PAYLOAD,2022-05-19 14:00:01,15.08819569,0.000168,53.2194,49.5492,49.6124,222.1744,0.0024735,0.00039275,0.0,0 STARLINK-3350,1 51105U 22005B   22139.58335648  .00039275  00000-0  24735-2 0  9999,2 51105  53.2194  49.5492 0001680  49.6124 222.1744 15.08819569  1300,6917.943,95.439,540.97,538.646,0.0
51105.0,STARLINK-3350,PAYLOAD,2022-05-19 22:00:00,15.08856889,0.0001738,53.22,48.0563,48.8736,234.4211,-0.0032628,-0.00051866,0.0,0 STARLINK-3350,1 51105U 22005B   22139.91667824 -.00051866  00000-0 -32628-2 0  9992,2 51105  53.2200  48.0563 0001738  48.8736 234.4211 15.08856889 20183,6917.829000000002,95.436,540.896,538.491,0.0
51105.0,STARLINK-3350,PAYLOAD,2022-05-20 14:00:01,15.08830563,0.000168,53.2197,45.0626,49.3373,257.1398,0.0019706,0.00031205,0.0,0 STARLINK-3350,1 51105U 22005B   22140.58334491  .00031205  00000-0  19706-2 0  9993,2 51105  53.2197  45.0626 0001680  49.3373 257.1398 15.08830563 20284,6917.909000000002,95.438,540.936,538.612,0.0
51105.0,STARLINK-3350,PAYLOAD,2022-05-20 22:00:00,15.08861929,0.0001809,53.2197,43.5672,49.298,268.7757,-0.0033034,-0.00052511,0.0,0 STARLINK-3350,1 51105U 22005B   22140.91667824 -.00052511  00000-0 -33034-2 0  9994,2 51105  53.2197  43.5672 0001809  49.2980 268.7757 15.08861929  1303,6917.813,95.436,540.93,538.427,0.0
51105.0,STARLINK-3350,PAYLOAD,2022-05-21 06:00:00,15.08834933,0.0001898,53.2197,42.0715,44.4754,285.2014,-0.00017609,-3.089e-05,0.0,0 STARLINK-3350,1 51105U 22005B   22141.25001157 -.00003089  00000-0 -17609-3 0  9990,2 51105  53.2197  42.0715 0001898  44.4754 285.2014 15.08834933 20383,6917.896,95.438,541.0740000000002,538.448,0.0
51105.0,STARLINK-3350,PAYLOAD,2022-05-21 14:00:01,15.08791822,0.0001818,53.22,40.5733,52.3119,289.0233,0.0039621,0.00063252,0.0,0 STARLINK-3350,1 51105U 22005B   22141.58335648  .00063252  00000-0  39621-2 0  9994,2 51105  53.2200  40.5733 0001818  52.3119 289.0233 15.08791822  1301,6918.028,95.441,541.15,538.635,0.0
51105.0,STARLINK-3350,PAYLOAD,2022-05-21 22:00:00,15.08857467,0.0001736,53.2196,39.0784,43.8369,309.0233,-0.0030061,-0.00047836,0.0,0 STARLINK-3350,1 51105U 22005B   22141.91667824 -.00047836  00000-0 -30061-2 0  9996,2 51105  53.2196  39.0784 0001736  43.8369 309.0233 15.08857467  1306,6917.8269999999975,95.436,540.893,538.491,0.0
51105.0,STARLINK-3350,PAYLOAD,2022-05-22 14:00:01,15.08823764,0.0001624,53.2186,36.0844,45.4428,330.5977,0.0023301,0.00036974,0.0,0 STARLINK-3350,1 51105U 22005B   22142.58334491  .00036974  00000-0  23301-2 0  9999,2 51105  53.2186  36.0844 0001624  45.4428 330.5977 15.08823764 20587,6917.93,95.439,540.918,538.672,0.0
51105.0,STARLINK-3350,PAYLOAD,2022-05-22 22:00:01,15.08838698,0.0001851,53.2189,34.5894,44.9786,342.7158,-0.00047661,-7.865e-05,0.0,0 STARLINK-3350,1 51105U 22005B   22142.91668981 -.00007865  00000-0 -47661-3 0  9995,2 51105  53.2189  34.5894 0001851  44.9786 342.7158 15.08838698  1308,6917.884,95.438,541.03,538.469,0.0
51105.0,STARLINK-3350,PAYLOAD,2022-05-23 04:00:00,15.08835938,0.0001937,53.2188,33.4678,42.4988,263.8317,0.0017710999999999,0.00028009,0.0,0 STARLINK-3350,1 51105U 22005B   22143.16667824  .00028009  00000-0  17711-2 0  9991,2 51105  53.2188  33.4678 0001937  42.4988 263.8317 15.08835938 20672,6917.893,95.438,541.0980000000002,538.418,0.0
51105.0,STARLINK-3350,PAYLOAD,2022-05-23 14:00:01,15.08819871,0.0001746,53.2191,31.5953,49.8302,1.0057,0.00093848,0.00014671,0.0,0 STARLINK-3350,1 51105U 22005B   22143.58334491  .00014671  00000-0  93848-3 0  9994,2 51105  53.2191  31.5953 0001746  49.8302   1.0057 15.08819871 20738,6917.941999999999,95.439,541.015,538.599,0.0
51105.0,STARLINK-3350,PAYLOAD,2022-05-23 22:00:01,15.08866059,0.0001727,53.2193,30.1005,41.4447,21.0294,-0.0033699,-0.0005356,0.0,0 STARLINK-3350,1 51105U 22005B   22143.91668981 -.00053560  00000-0 -33699-2 0  9994,2 51105  53.2193  30.1005 0001727  41.4447  21.0294 15.08866059  1307,6917.801,95.436,540.86,538.471,0.0
51105.0,STARLINK-3350,PAYLOAD,2022-05-24 14:00:01,15.0881535,0.0001575,53.2193,27.1064,45.7936,39.8121,0.001741,0.0002751,0.0,0 STARLINK-3350,1 51105U 22005B   22144.58334491  .00027510  00000-0  17410-2 0  9991,2 51105  53.2193  27.1064 0001575  45.7936  39.8121 15.08815350  1303,6917.956,95.439,540.91,538.731,0.0
51105.0,STARLINK-3350,PAYLOAD,2022-05-24 22:00:00,15.08837267,0.0001773,53.2193,25.6119,43.9225,53.2724,-0.00036008,-6.014e-05,0.0,0 STARLINK-3350,1 51105U 22005B   22144.91667824 -.00006014  00000-0 -36008-3 0  9990,2 51105  53.2193  25.6119 0001773  43.9225  53.2724 15.08837267 20949,6917.889,95.438,540.98,538.5269999999998,0.0
51105.0,STARLINK-3350,PAYLOAD,2022-05-25 14:00:01,15.08809007,0.0001678,53.2191,22.6178,50.8858,69.5044,0.0033753,0.00053794,0.0,0 STARLINK-3350,1 51105U 22005B   22145.58334491  .00053794  00000-0  33753-2 0  9993,2 51105  53.2191  22.6178 0001678  50.8858  69.5044 15.08809007  1307,6917.975,95.44,541.001,538.679,0.0
51105.0,STARLINK-3350,PAYLOAD,2022-05-25 21:25:09,15.0878008,0.0002353,53.219,21.2304,24.4898,335.6206,-0.00042925,-7.102e-05,0.0,0 STARLINK-3350,1 51105U 22005B   22145.89246905 -.00007102  00000-0 -42925-3 0  9995,2 51105  53.2190  21.2304 0002353  24.4898 335.6206 15.08780080 19972,6918.064,95.441,541.556,538.3009999999998,0.0
51105.0,STARLINK-3350,PAYLOAD,2022-05-26 06:00:00,15.08787437,0.0001993,53.2186,19.6271,38.6088,104.7443,0.0042589,0.0006805,0.0,0 STARLINK-3350,1 51105U 22005B   22146.25001157  .00068050  00000-0  42589-2 0  9996,2 51105  53.2186  19.6271 0001993  38.6088 104.7443 15.08787437 21141,6918.041,95.441,541.285,538.5269999999998,0.0
51105.0,STARLINK-3350,PAYLOAD,2022-05-26 08:32:52,15.0877846,0.0001476,53.2194,19.1496,41.9344,318.1761,-0.00037851,-6.297e-05,0.0,0 STARLINK-3350,1 51105U 22005B   22146.35616390 -.00006297  00000-0 -37851-3 0  9992,2 51105  53.2194  19.1496 0001476  41.9344 318.1761 15.08778460 20040,6918.068,95.441,540.955,538.9119999999998,0.0
51105.0,STARLINK-3350,PAYLOAD,2022-05-26 22:00:00,15.08845864,0.0002075,53.2184,16.6352,42.997,123.5108,-0.00018956,-3.304e-05,0.0,0 STARLINK-3350,1 51105U 22005B   22146.91667824 -.00003304  00000-0 -18956-3 0  9993,2 51105  53.2184  16.6352 0002075  42.9970 123.5108 15.08845864 21243,6917.861999999999,95.437,541.163,538.2919999999998,0.0
